OBJECT_NAME,OBJECT_ID,EPOCH,MEAN_MOTION,ECCENTRICITY,INCLINATION,RA_OF_ASC_NODE,ARG_OF_PERICENTER,MEAN_ANOMALY,EPHEMERIS_TYPE,CLASSIFICATION_TYPE,NORAD_CAT_ID,ELEMENT_SET_NO,REV_AT_EPOCH,BSTAR,MEAN_MOTION_DOT,MEAN_MOTION_DDOT
ONEWEB-0012,2019-010A,2026-06-19T10:58:12.299520,13.16595552,.00018883,87.9095,228.3347,85.3759,274.7587,0,U,44057,999,35186,.34583431E-3,.145E-5,0
ONEWEB-0010,2019-010B,2026-06-19T13:24:07.060320,13.16595434,.00018692,87.9099,228.3102,106.5208,253.6128,0,U,44058,999,35192,-.13433676E-4,.8E-7,0
ONEWEB-0008,2019-010C,2026-06-19T10:21:43.075584,13.16595330,.00023221,87.9093,228.3309,97.1739,262.9656,0,U,44059,999,35202,-.26286032E-3,-.88E-6,0
ONEWEB-0007,2019-010D,2026-06-19T13:04:22.905984,13.15548424,.0001646,87.9001,258.7515,100.4359,259.6957,0,U,44060,999,35168,.39515957E-3,.162E-5,0
ONEWEB-0006,2019-010E,2026-06-19T11:20:32.643456,13.15549207,.00018571,87.9014,258.7303,103.8643,256.2694,0,U,44061,999,35172,.30542512E-3,.128E-5,0
ONEWEB-0011,2019-010F,2026-06-19T12:24:26.146656,13.15547600,.00021289,87.9014,258.7311,104.9275,255.2091,0,U,44062,999,35172,-.97212634E-4,-.24E-6,0
ONEWEB-0013,2020-008A,2026-06-19T09:15:46.155168,13.09455315,.00021577,87.8515,52.3819,53.6650,306.4676,0,U,45131,999,30635,-.20601087E-2,-.697E-5,0
ONEWEB-0017,2020-008B,2026-06-19T12:28:07.680576,13.10368627,.00018127,87.8832,35.8045,83.9021,276.2313,0,U,45132,999,30825,-.12002244E-2,-.406E-5,0
ONEWEB-0020,2020-008C,2026-06-19T13:34:40.733472,13.10475682,.00018767,87.8829,35.7936,84.9082,275.2260,0,U,45133,999,30865,.55426115E-2,.1951E-4,0
ONEWEB-0021,2020-008D,2026-06-19T13:56:22.855776,13.10422067,.00018178,87.8834,35.8066,82.9860,277.1474,0,U,45134,999,30896,.3358213E-2,.1186E-4,0
ONEWEB-0023,2020-008F,2026-06-19T08:42:10.728288,13.10388281,.00019092,87.8839,35.8321,79.3329,280.8013,0,U,45136,999,30836,-.47228544E-3,-.152E-5,0
ONEWEB-0024,2020-008G,2026-06-19T13:32:24.698400,13.10495746,.00017588,87.8839,35.7844,84.2268,275.9060,0,U,45137,999,30855,-.90515064E-3,-.304E-5,0
ONEWEB-0025,2020-008H,2026-06-19T13:32:01.257216,13.10493004,.00022474,87.8838,35.7744,90.4793,269.6592,0,U,45138,999,30888,-.18753939E-2,-.643E-5,0
ONEWEB-0026,2020-008J,2026-06-19T07:04:35.983488,13.11414259,.00018286,87.8882,20.6487,90.8427,269.2910,0,U,45139,999,31138,-.12750905E-2,-.439E-5,0
ONEWEB-0028,2020-008K,2026-06-19T13:48:40.843008,13.11414857,.0001871,87.8881,20.6007,70.7791,289.3539,0,U,45140,999,30893,.14615805E-2,.531E-5,0
ONEWEB-0032,2020-008L,2026-06-19T08:50:48.399072,13.10375014,.00019105,87.8835,35.8360,65.9122,294.2205,0,U,45141,999,30858,-.76167526E-2,-.2646E-4,0
ONEWEB-0033,2020-008M,2026-06-19T13:44:16.487520,13.10461608,.00016799,87.8827,35.8023,100.2175,259.9141,0,U,45142,999,30852,-.20440072E-2,-.702E-5,0
ONEWEB-0035,2020-008N,2026-06-19T08:43:36.206400,13.10381462,.00017645,87.8831,35.8372,86.4798,273.6531,0,U,45143,999,30822,.11419189E-2,.411E-5,0
ONEWEB-0036,2020-008P,2026-06-19T13:38:40.703424,13.09979767,.00019168,87.8844,35.8085,78.0460,282.0882,0,U,45144,999,30867,-.16656743E-2,-.565E-5,0
ONEWEB-0038,2020-008Q,2026-06-19T07:19:26.823648,13.11416195,.00002127,87.8899,20.6553,35.7330,324.3812,0,U,45145,999,31060,-.2197472E-2,-.766E-5,0
ONEWEB-0039,2020-008R,2026-06-18T01:10:16.222368,13.10374808,.00018774,87.8830,36.0966,66.6167,293.5157,0,U,45146,999,30827,-.15006644E-2,-.511E-5,0
ONEWEB-0040,2020-008S,2026-06-18T02:50:30.979104,13.10477044,.00022922,87.8838,36.0916,77.9489,282.1895,0,U,45147,999,30798,-.16850119E-2,-.576E-5,0
ONEWEB-0043,2020-008U,2026-06-19T13:41:52.074240,13.10467315,.0001939,87.8834,35.7914,65.4153,294.7176,0,U,45149,999,30849,-.16394228E-2,-.56E-5,0
ONEWEB-0044,2020-008V,2026-06-19T08:53:01.226976,13.10361831,.00018505,87.8843,35.8324,77.6705,282.4630,0,U,45150,999,30876,-.33132347E-2,-.1144E-4,0
ONEWEB-0045,2020-008W,2026-06-19T07:11:55.589280,13.11415324,.00017605,87.8894,20.6390,82.2799,277.8529,0,U,45151,999,31068,-.14545624E-2,-.503E-5,0
ONEWEB-0047,2020-008X,2026-06-19T08:43:11.042400,13.10385144,.00016059,87.8841,35.8333,86.4765,273.6546,0,U,45152,999,30848,-.36857178E-3,-.116E-5,0
ONEWEB-0048,2020-008Y,2026-06-19T14:06:02.373408,13.10394549,.00018303,87.8836,35.8098,84.5680,275.5656,0,U,45153,999,30812,.29286368E-2,.1035E-4,0
ONEWEB-0049,2020-008Z,2026-06-19T08:40:46.648128,13.10392191,.00021912,87.8828,35.8441,80.4745,279.6630,0,U,45154,999,30831,-.4717209E-3,-.152E-5,0
ONEWEB-0051,2020-008AA,2026-06-19T07:09:29.587104,13.11416703,.00018435,87.8885,20.6469,85.6101,274.5238,0,U,45155,999,31136,-.1537461E-2,-.532E-5,0
ONEWEB-0052,2020-008AB,2026-06-19T09:10:06.907296,13.10304373,.00022324,87.8835,35.8255,81.2916,278.8464,0,U,45156,999,30822,.19767126E-2,.702E-5,0
