ONEWEB-0012             
1 44057U 19010A   26170.45708680  .00000145  00000+0  34583-3 0  9990
2 44057  87.9095 228.3347 0001888  85.3759 274.7587 13.16595552351866
ONEWEB-0010             
1 44058U 19010B   26170.55841505  .00000008  00000+0 -13434-4 0  9998
2 44058  87.9099 228.3102 0001869 106.5208 253.6128 13.16595434351927
ONEWEB-0008             
1 44059U 19010C   26170.43174856 -.00000088  00000+0 -26286-3 0  9991
2 44059  87.9093 228.3309 0002322  97.1739 262.9656 13.16595330352026
ONEWEB-0007             
1 44060U 19010D   26170.54470956  .00000162  00000+0  39516-3 0  9996
2 44060  87.9001 258.7515 0001646 100.4359 259.6957 13.15548424351686
ONEWEB-0006             
1 44061U 19010E   26170.47260004  .00000128  00000+0  30543-3 0  9993
2 44061  87.9014 258.7303 0001857 103.8643 256.2694 13.15549207351729
ONEWEB-0011             
1 44062U 19010F   26170.51696929 -.00000024  00000+0 -97213-4 0  9993
2 44062  87.9014 258.7311 0002128 104.9275 255.2091 13.15547600351729
ONEWEB-0013             
1 45131U 20008A   26170.38595087 -.00000697  00000+0 -20601-2 0  9999
2 45131  87.8515  52.3819 0002157  53.6650 306.4676 13.09455315306353
ONEWEB-0017             
1 45132U 20008B   26170.51953334 -.00000406  00000+0 -12002-2 0  9992
2 45132  87.8832  35.8045 0001812  83.9021 276.2313 13.10368627308252
ONEWEB-0020             
1 45133U 20008C   26170.56574923  .00001951  00000+0  55426-2 0  9992
2 45133  87.8829  35.7936 0001876  84.9082 275.2260 13.10475682308659
ONEWEB-0021             
1 45134U 20008D   26170.58082009  .00001186  00000+0  33582-2 0  9993
2 45134  87.8834  35.8066 0001817  82.9860 277.1474 13.10422067308969
ONEWEB-0023             
1 45136U 20008F   26170.36262417 -.00000152  00000+0 -47229-3 0  9992
2 45136  87.8839  35.8321 0001909  79.3329 280.8013 13.10388281308365
ONEWEB-0024             
1 45137U 20008G   26170.56417475 -.00000304  00000+0 -90515-3 0  9996
2 45137  87.8839  35.7844 0001758  84.2268 275.9060 13.10495746308557
ONEWEB-0025             
1 45138U 20008H   26170.56390344 -.00000643  00000+0 -18754-2 0  9992
2 45138  87.8838  35.7744 0002247  90.4793 269.6592 13.10493004308883
ONEWEB-0026             
1 45139U 20008J   26170.29486092 -.00000439  00000+0 -12751-2 0  9993
2 45139  87.8882  20.6487 0001828  90.8427 269.2910 13.11414259311387
ONEWEB-0028             
1 45140U 20008K   26170.57547272  .00000531  00000+0  14616-2 0  9997
2 45140  87.8881  20.6007 0001871  70.7791 289.3539 13.11414857308936
ONEWEB-0032             
1 45141U 20008L   26170.36861573 -.00002646  00000+0 -76168-2 0  9999
2 45141  87.8835  35.8360 0001910  65.9122 294.2205 13.10375014308580
ONEWEB-0033             
1 45142U 20008M   26170.57241305 -.00000702  00000+0 -20440-2 0  9991
2 45142  87.8827  35.8023 0001679 100.2175 259.9141 13.10461608308527
ONEWEB-0035             
1 45143U 20008N   26170.36361350  .00000411  00000+0  11419-2 0  9993
2 45143  87.8831  35.8372 0001764  86.4798 273.6531 13.10381462308223
ONEWEB-0036             
1 45144U 20008P   26170.56852666 -.00000565  00000+0 -16657-2 0  9992
2 45144  87.8844  35.8085 0001916  78.0460 282.0882 13.09979767308672
ONEWEB-0038             
1 45145U 20008Q   26170.30517157 -.00000766  00000+0 -21975-2 0  9990
2 45145  87.8899  20.6553 0000212  35.7330 324.3812 13.11416195310602
ONEWEB-0039             
1 45146U 20008R   26169.04879887 -.00000511  00000+0 -15007-2 0  9998
2 45146  87.8830  36.0966 0001877  66.6167 293.5157 13.10374808308278
ONEWEB-0040             
1 45147U 20008S   26169.11841411 -.00000576  00000+0 -16850-2 0  9997
2 45147  87.8838  36.0916 0002292  77.9489 282.1895 13.10477044307982
ONEWEB-0043             
1 45149U 20008U   26170.57074160 -.00000560  00000+0 -16394-2 0  9996
2 45149  87.8834  35.7914 0001939  65.4153 294.7176 13.10467315308499
ONEWEB-0044             
1 45150U 20008V   26170.37015309 -.00001144  00000+0 -33132-2 0  9994
2 45150  87.8843  35.8324 0001850  77.6705 282.4630 13.10361831308762
ONEWEB-0045             
1 45151U 20008W   26170.29994895 -.00000503  00000+0 -14546-2 0  9998
2 45151  87.8894  20.6390 0001760  82.2799 277.8529 13.11415324310686
ONEWEB-0047             
1 45152U 20008X   26170.36332225 -.00000116  00000+0 -36857-3 0  9990
2 45152  87.8841  35.8333 0001605  86.4765 273.6546 13.10385144308484
ONEWEB-0048             
1 45153U 20008Y   26170.58752747  .00001035  00000+0  29286-2 0  9996
2 45153  87.8836  35.8098 0001830  84.5680 275.5656 13.10394549308125
ONEWEB-0049             
1 45154U 20008Z   26170.36165102 -.00000152  00000+0 -47172-3 0  9992
2 45154  87.8828  35.8441 0002191  80.4745 279.6630 13.10392191308316
ONEWEB-0051             
1 45155U 20008AA  26170.29825911 -.00000532  00000+0 -15375-2 0  9997
2 45155  87.8885  20.6469 0001843  85.6101 274.5238 13.11416703311362
ONEWEB-0052             
1 45156U 20008AB  26170.38202439  .00000702  00000+0  19767-2 0  9998
2 45156  87.8835  35.8255 0002232  81.2916 278.8464 13.10304373308225
